[{"OBJECT_NAME":"STARLINK-2570","OBJECT_ID":"2021-038BE","EPOCH":"2026-03-09T21:34:35.486112","MEAN_MOTION":15.30189438,"ECCENTRICITY":0.00011491,"INCLINATION":53.1602,"RA_OF_ASC_NODE":331.8971,"ARG_OF_PERICENTER":114.9213,"MEAN_ANOMALY":245.1907,"EPHEMERIS_TYPE":0,"CLASSIFICATION_TYPE":"U","NORAD_CAT_ID":48405,"ELEMENT_SET_NO":999,"REV_AT_EPOCH":26746,"BSTAR":-2.4708859e-5,"MEAN_MOTION_DOT":-1.091e-5,"MEAN_MOTION_DDOT":0},{"OBJECT_NAME":"SITRO-AIS 8 (ANOKHIN)","OBJECT_ID":"2023-091AD","EPOCH":"2026-03-09T23:44:40.058592","MEAN_MOTION":15.29359179,"ECCENTRICITY":0.0012509,"INCLINATION":97.5169,"RA_OF_ASC_NODE":133.2823,"ARG_OF_PERICENTER":92.0171,"MEAN_ANOMALY":268.2501,"EPHEMERIS_TYPE":0,"CLASSIFICATION_TYPE":"U","NORAD_CAT_ID":57193,"ELEMENT_SET_NO":999,"REV_AT_EPOCH":14927,"BSTAR":0.00064982524,"MEAN_MOTION_DOT":0.00018494,"MEAN_MOTION_DDOT":0}]
